{"type": "FeatureCollection", "features": [ {"type": "Feature", "properties": {"norad_id": 66650, "name": "BEE-1000", "group": "last-30-days", "lat": -7.198894017253494, "lon": 91.80461549791211, "alt_km": 594.0789423229344, "timestamp": "2025-12-11T13:55:00.915132+00:00", "meta": {"OBJECT_NAME": "BEE-1000", "OBJECT_ID": "2025-274A", "EPOCH": "2025-12-11T06:38:23.097408", "MEAN_MOTION": 14.91653848, "ECCENTRICITY": 0.00103912, "INCLINATION": 97.7386, "RA_OF_ASC_NODE": 272.4912, "ARG_OF_PERICENTER": 256.9757, "MEAN_ANOMALY": 103.0302, "EPHEMERIS_TYPE": 0, "CLASSIFICATION_TYPE": "U", "NORAD_CAT_ID": 66650, "ELEMENT_SET_NO": 999, "REV_AT_EPOCH": 218, "BSTAR": 0.0003297303, "MEAN_MOTION_DOT": 3.261e-05, "MEAN_MOTION_DDOT": 0}, "tle": {"line1": "1 66650U 25274A   25345.27665622  .00003261  00000+0  32973-3 0  9996", "line2": "2 66650  97.7386 272.4912 0010391 256.9757 103.0302 14.91653848  2186"}}, "geometry": {"type": "Point", "coordinates": [91.80461549791211, -7.198894017253494]}}, {"type": "Feature", "properties": {"norad_id": 66651, "name": "2025-274B", "group": "last-30-days", "lat": -11.575888441872989, "lon": 91.19392937948902, "alt_km": 593.4515943585548, "timestamp": "2025-12-11T13:55:00.915159+00:00", "meta": {"OBJECT_NAME": "2025-274B", "OBJECT_ID": "2025-274B", "EPOCH": "2025-12-11T06:37:14.208960", "MEAN_MOTION": 14.91781718, "ECCENTRICITY": 0.00106733, "INCLINATION": 97.7379, "RA_OF_ASC_NODE": 272.4915, "ARG_OF_PERICENTER": 256.035, "MEAN_ANOMALY": 103.9682, "EPHEMERIS_TYPE": 0, "CLASSIFICATION_TYPE": "U", "NORAD_CAT_ID": 66651, "ELEMENT_SET_NO": 999, "REV_AT_EPOCH": 218, "BSTAR": 0.00075224808, "MEAN_MOTION_DOT": 7.54e-05, "MEAN_MOTION_DDOT": 0}, "tle": {"line1": "1 66651U 25274B   25345.27585890  .00007540  00000+0  75225-3 0  9996", "line2": "2 66651  97.7379 272.4915 0010673 256.0350 103.9682 14.91781718  2183"}}, "geometry": {"type": "Point", "coordinates": [91.19392937948902, -11.575888441872989]}}, {"type": "Feature", "properties": {"norad_id": 66652, "name": "2025-274C", "group": "last-30-days", "lat": -18.789557373276025, "lon": 90.14217796795157, "alt_km": 593.9058966722259, "timestamp": "2025-12-11T13:55:00.915177+00:00", "meta": {"OBJECT_NAME": "2025-274C", "OBJECT_ID": "2025-274C", "EPOCH": "2025-12-11T06:35:18.800160", "MEAN_MOTION": 14.91886998, "ECCENTRICITY": 0.00103576, "INCLINATION": 97.7385, "RA_OF_ASC_NODE": 272.4941, "ARG_OF_PERICENTER": 263.0443, "MEAN_ANOMALY": 96.9597, "EPHEMERIS_TYPE": 0, "CLASSIFICATION_TYPE": "U", "NORAD_CAT_ID": 66652, "ELEMENT_SET_NO": 999, "REV_AT_EPOCH": 218, "BSTAR": 0.00040603754, "MEAN_MOTION_DOT": 4.053e-05, "MEAN_MOTION_DDOT": 0}, "tle": {"line1": "1 66652U 25274C   25345.27452315  .00004053  00000+0  40604-3 0  9991", "line2": "2 66652  97.7385 272.4941 0010357 263.0443  96.9597 14.91886998  2182"}}, "geometry": {"type": "Point", "coordinates": [90.14217796795157, -18.789557373276025]}}, {"type": "Feature", "properties": {"norad_id": 66653, "name": "2025-274D", "group": "last-30-days", "lat": -19.138619392065543, "lon": 90.0889490987337, "alt_km": 593.1233358648624, "timestamp": "2025-12-11T13:55:00.915188+00:00", "meta": {"OBJECT_NAME": "2025-274D", "OBJECT_ID": "2025-274D", "EPOCH": "2025-12-11T06:35:13.060608", "MEAN_MOTION": 14.91894136, "ECCENTRICITY": 0.00112006, "INCLINATION": 97.7384, "RA_OF_ASC_NODE": 272.4939, "ARG_OF_PERICENTER": 258.9944, "MEAN_ANOMALY": 101.0016, "EPHEMERIS_TYPE": 0, "CLASSIFICATION_TYPE": "U", "NORAD_CAT_ID": 66653, "ELEMENT_SET_NO": 999, "REV_AT_EPOCH": 218, "BSTAR": 0.00048341271, "MEAN_MOTION_DOT": 4.838e-05, "MEAN_MOTION_DDOT": 0}, "tle": {"line1": "1 66653U 25274D   25345.27445672  .00004838  00000+0  48341-3 0  9997", "line2": "2 66653  97.7384 272.4939 0011200 258.9944 101.0016 14.91894136  2183"}}, "geometry": {"type": "Point", "coordinates": [90.0889490987337, -19.138619392065543]}}, {"type": "Feature", "properties": {"norad_id": 66654, "name": "JACK E", "group": "last-30-days", "lat": -27.991872487468147, "lon": 88.6531344259458, "alt_km": 592.2018604226723, "timestamp": "2025-12-11T13:55:00.915198+00:00", "meta": {"OBJECT_NAME": "JACK E", "OBJECT_ID": "2025-274E", "EPOCH": "2025-12-11T06:32:51.937440", "MEAN_MOTION": 14.92069716, "ECCENTRICITY": 0.0011814, "INCLINATION": 97.7386, "RA_OF_ASC_NODE": 272.4965, "ARG_OF_PERICENTER": 260.6924, "MEAN_ANOMALY": 99.2959, "EPHEMERIS_TYPE": 0, "CLASSIFICATION_TYPE": "U", "NORAD_CAT_ID": 66654, "ELEMENT_SET_NO": 999, "REV_AT_EPOCH": 218, "BSTAR": 0.00050649641, "MEAN_MOTION_DOT": 5.095e-05, "MEAN_MOTION_DDOT": 0}, "tle": {"line1": "1 66654U 25274E   25345.27282335  .00005095  00000+0  50650-3 0  9995", "line2": "2 66654  97.7386 272.4965 0011814 260.6924  99.2959 14.92069716  2187"}}, "geometry": {"type": "Point", "coordinates": [88.6531344259458, -27.991872487468147]}}, {"type": "Feature", "properties": {"norad_id": 66655, "name": "2025-274F", "group": "last-30-days", "lat": -36.32676582575472, "lon": 87.06705952230072, "alt_km": 603.0186854004323, "timestamp": "2025-12-11T13:55:00.915208+00:00", "meta": {"OBJECT_NAME": "2025-274F", "OBJECT_ID": "2025-274F", "EPOCH": "2025-12-10T14:24:20.623680", "MEAN_MOTION": 14.91412977, "ECCENTRICITY": 0.0004698, "INCLINATION": 97.7323, "RA_OF_ASC_NODE": 271.8405, "ARG_OF_PERICENTER": 22.2473, "MEAN_ANOMALY": 337.8948, "EPHEMERIS_TYPE": 0, "CLASSIFICATION_TYPE": "U", "NORAD_CAT_ID": 66655, "ELEMENT_SET_NO": 999, "REV_AT_EPOCH": 208, "BSTAR": 1.9321e-05, "MEAN_MOTION_DOT": 1.38e-06, "MEAN_MOTION_DDOT": 0}, "tle": {"line1": "1 66655U 25274F   25344.60023870  .00000138  00000+0  19321-4 0  9993", "line2": "2 66655  97.7323 271.8405 0004698  22.2473 337.8948 14.91412977  2082"}}, "geometry": {"type": "Point", "coordinates": [87.06705952230072, -36.32676582575472]}}, {"type": "Feature", "properties": {"norad_id": 66656, "name": "2025-274G", "group": "last-30-days", "lat": -37.68468270677575, "lon": 86.77244102306867, "alt_km": 591.0392706480152, "timestamp": "2025-12-11T13:55:00.915218+00:00", "meta": {"OBJECT_NAME": "2025-274G", "OBJECT_ID": "2025-274G", "EPOCH": "2025-12-11T06:30:17.118144", "MEAN_MOTION": 14.92260132, "ECCENTRICITY": 0.00124186, "INCLINATION": 97.7384, "RA_OF_ASC_NODE": 272.4985, "ARG_OF_PERICENTER": 262.5657, "MEAN_ANOMALY": 97.4151, "EPHEMERIS_TYPE": 0, "CLASSIFICATION_TYPE": "U", "NORAD_CAT_ID": 66656, "ELEMENT_SET_NO": 999, "REV_AT_EPOCH": 218, "BSTAR": 0.00055293549, "MEAN_MOTION_DOT": 5.595e-05, "MEAN_MOTION_DDOT": 0}, "tle": {"line1": "1 66656U 25274G   25345.27103146  .00005595  00000+0  55294-3 0  9993", "line2": "2 66656  97.7384 272.4985 0012418 262.5657  97.4151 14.92260132  2183"}}, "geometry": {"type": "Point", "coordinates": [86.77244102306867, -37.68468270677575]}}, {"type": "Feature", "properties": {"norad_id": 66657, "name": "SPIRONE", "group": "last-30-days", "lat": -47.1000808856878, "lon": 84.39133662848577, "alt_km": 592.5745158768423, "timestamp": "2025-12-11T13:55:00.915230+00:00", "meta": {"OBJECT_NAME": "SPIRONE", "OBJECT_ID": "2025-274H", "EPOCH": "2025-12-11T06:27:46.274112", "MEAN_MOTION": 14.9243921, "ECCENTRICITY": 0.0010864, "INCLINATION": 97.7382, "RA_OF_ASC_NODE": 272.5004, "ARG_OF_PERICENTER": 281.4463, "MEAN_ANOMALY": 78.5536, "EPHEMERIS_TYPE": 0, "CLASSIFICATION_TYPE": "U", "NORAD_CAT_ID": 66657, "ELEMENT_SET_NO": 999, "REV_AT_EPOCH": 218, "BSTAR": 0.00053526969, "MEAN_MOTION_DOT": 5.437e-05, "MEAN_MOTION_DDOT": 0}, "tle": {"line1": "1 66657U 25274H   25345.26928558  .00005437  00000+0  53527-3 0  9997", "line2": "2 66657  97.7382 272.5004 0010864 281.4463  78.5536 14.92439210  2185"}}, "geometry": {"type": "Point", "coordinates": [84.39133662848577, -47.1000808856878]}}, {"type": "Feature", "properties": {"norad_id": 66658, "name": "2025-274J", "group": "last-30-days", "lat": -56.199985921846974, "lon": 81.09018653086368, "alt_km": 591.3896530301945, "timestamp": "2025-12-11T13:55:00.915241+00:00", "meta": {"OBJECT_NAME": "2025-274J", "OBJECT_ID": "2025-274J", "EPOCH": "2025-12-11T06:25:19.047648", "MEAN_MOTION": 14.92610653, "ECCENTRICITY": 0.00114245, "INCLINATION": 97.7382, "RA_OF_ASC_NODE": 272.5027, "ARG_OF_PERICENTER": 284.4854, "MEAN_ANOMALY": 75.5098, "EPHEMERIS_TYPE": 0, "CLASSIFICATION_TYPE": "U", "NORAD_CAT_ID": 66658, "ELEMENT_SET_NO": 999, "REV_AT_EPOCH": 218, "BSTAR": 0.00051380546, "MEAN_MOTION_DOT": 5.24e-05, "MEAN_MOTION_DDOT": 0}, "tle": {"line1": "1 66658U 25274J   25345.26758157  .00005240  00000+0  51381-3 0  9992", "line2": "2 66658  97.7382 272.5027 0011424 284.4854  75.5098 14.92610653  2183"}}, "geometry": {"type": "Point", "coordinates": [81.09018653086368, -56.199985921846974]}}, {"type": "Feature", "properties": {"norad_id": 66659, "name": "JACK K", "group": "last-30-days", "lat": -65.73686853567398, "lon": 75.25610818571707, "alt_km": 589.8039582205774, "timestamp": "2025-12-11T13:55:00.915254+00:00", "meta": {"OBJECT_NAME": "JACK K", "OBJECT_ID": "2025-274K", "EPOCH": "2025-12-11T06:22:42.223008", "MEAN_MOTION": 14.92795408, "ECCENTRICITY": 0.00121142, "INCLINATION": 97.7382, "RA_OF_ASC_NODE": 272.5054, "ARG_OF_PERICENTER": 285.9457, "MEAN_ANOMALY": 74.0427, "EPHEMERIS_TYPE": 0, "CLASSIFICATION_TYPE": "U", "NORAD_CAT_ID": 66659, "ELEMENT_SET_NO": 999, "REV_AT_EPOCH": 218, "BSTAR": 0.00049114266, "MEAN_MOTION_DOT": 5.03e-05, "MEAN_MOTION_DDOT": 0}, "tle": {"line1": "1 66659U 25274K   25345.26576647  .00005030  00000+0  49114-3 0  9993", "line2": "2 66659  97.7382 272.5054 0012114 285.9457  74.0427 14.92795408  2188"}}, "geometry": {"type": "Point", "coordinates": [75.25610818571707, -65.73686853567398]}}]}